{
  "type": "FeatureCollection",
  "features": [
    {
      "type": "Feature",
      "properties": {
        "norad_id": 66731,
        "name": "FLOCK 4H-28",
        "group": "last-30-days",
        "lat": -61.124692230945854,
        "lon": 80.99595901077225,
        "alt_km": 519.7964074892006,
        "timestamp": "2025-12-21T16:47:53.449416+00:00",
        "meta_object_name": "FLOCK 4H-28",
        "meta_object_id": "2025-276BT",
        "meta_epoch": "2025-12-21T10:44:21.388128",
        "meta_mean_motion": 15.17121778,
        "meta_eccentricity": 0.0003209,
        "meta_inclination": 97.439,
        "meta_ra_of_asc_node": 67.0426,
        "meta_arg_of_pericenter": 269.706,
        "meta_mean_anomaly": 90.3806,
        "meta_ephemeris_type": 0,
        "meta_classification_type": "U",
        "meta_norad_cat_id": 66731,
        "meta_element_set_no": 999,
        "meta_rev_at_epoch": 344,
        "meta_bstar": 0.00033856,
        "meta_mean_motion_dot": 6.648e-05,
        "meta_mean_motion_ddot": 0,
        "tle_line1": "1 66731U 25276BT  25355.44746977  .00006648  00000+0  33856-3 0  9994",
        "tle_line2": "2 66731  97.4390  67.0426 0003209 269.7060  90.3806 15.17121778  3443"
      },
      "geometry": {
        "type": "Point",
        "coordinates": [
          80.99595901077225,
          -61.124692230945854
        ]
      }
    },
    {
      "type": "Feature",
      "properties": {
        "norad_id": 66732,
        "name": "FLOCK 4H-29",
        "group": "last-30-days",
        "lat": -49.585584825468736,
        "lon": 76.11465391207915,
        "alt_km": 520.7913116808568,
        "timestamp": "2025-12-21T16:47:53.449426+00:00",
        "meta_object_name": "FLOCK 4H-29",
        "meta_object_id": "2025-276BU",
        "meta_epoch": "2025-12-21T12:16:15.358368",
        "meta_mean_motion": 15.17382579,
        "meta_eccentricity": 0.0002538,
        "meta_inclination": 97.4354,
        "meta_ra_of_asc_node": 67.1071,
        "meta_arg_of_pericenter": 213.9664,
        "meta_mean_anomaly": 146.1407,
        "meta_ephemeris_type": 0,
        "meta_classification_type": "U",
        "meta_norad_cat_id": 66732,
        "meta_element_set_no": 999,
        "meta_rev_at_epoch": 345,
        "meta_bstar": 0.004116,
        "meta_mean_motion_dot": 0.00083033,
        "meta_mean_motion_ddot": 0,
        "tle_line1": "1 66732U 25276BU  25355.51128887  .00083033  00000+0  41160-2 0  9996",
        "tle_line2": "2 66732  97.4354  67.1071 0002538 213.9664 146.1407 15.17382579  3452"
      },
      "geometry": {
        "type": "Point",
        "coordinates": [
          76.11465391207915,
          -49.585584825468736
        ]
      }
    },
    {
      "type": "Feature",
      "properties": {
        "norad_id": 66733,
        "name": "FLOCK 4H-30",
        "group": "last-30-days",
        "lat": -48.27939257936119,
        "lon": 75.7172733598943,
        "alt_km": 515.8033406305567,
        "timestamp": "2025-12-21T16:47:53.449436+00:00",
        "meta_object_name": "FLOCK 4H-30",
        "meta_object_id": "2025-276BV",
        "meta_epoch": "2025-12-21T04:21:52.000704",
        "meta_mean_motion": 15.187439,
        "meta_eccentricity": 0.0012795,
        "meta_inclination": 97.3836,
        "meta_ra_of_asc_node": 66.8483,
        "meta_arg_of_pericenter": 220.041,
        "meta_mean_anomaly": 139.9882,
        "meta_ephemeris_type": 0,
        "meta_classification_type": "U",
        "meta_norad_cat_id": 66733,
        "meta_element_set_no": 999,
        "meta_rev_at_epoch": 340,
        "meta_bstar": 0.017442,
        "meta_mean_motion_dot": 0.00381895,
        "meta_mean_motion_ddot": 0,
        "tle_line1": "1 66733U 25276BV  25355.18185186  .00381895  00000+0  17442-1 0  9997",
        "tle_line2": "2 66733  97.3836  66.8483 0012795 220.0410 139.9882 15.18743900  3406"
      },
      "geometry": {
        "type": "Point",
        "coordinates": [
          75.7172733598943,
          -48.27939257936119
        ]
      }
    },
    {
      "type": "Feature",
      "properties": {
        "norad_id": 66734,
        "name": "FLOCK 4H-31",
        "group": "last-30-days",
        "lat": -54.92958149948096,
        "lon": 78.01332516147612,
        "alt_km": 519.6823529173244,
        "timestamp": "2025-12-21T16:47:53.449445+00:00",
        "meta_object_name": "FLOCK 4H-31",
        "meta_object_id": "2025-276BW",
        "meta_epoch": "2025-12-21T10:42:41.150304",
        "meta_mean_motion": 15.17198452,
        "meta_eccentricity": 0.0002607,
        "meta_inclination": 97.4378,
        "meta_ra_of_asc_node": 67.04,
        "meta_arg_of_pericenter": 284.9602,
        "meta_mean_anomaly": 75.1343,
        "meta_ephemeris_type": 0,
        "meta_classification_type": "U",
        "meta_norad_cat_id": 66734,
        "meta_element_set_no": 999,
        "meta_rev_at_epoch": 344,
        "meta_bstar": 0.00060948,
        "meta_mean_motion_dot": 0.00012056,
        "meta_mean_motion_ddot": 0,
        "tle_line1": "1 66734U 25276BW  25355.44630961  .00012056  00000+0  60948-3 0  9994",
        "tle_line2": "2 66734  97.4378  67.0400 0002607 284.9602  75.1343 15.17198452  3446"
      },
      "geometry": {
        "type": "Point",
        "coordinates": [
          78.01332516147612,
          -54.92958149948096
        ]
      }
    },
    {
      "type": "Feature",
      "properties": {
        "norad_id": 66735,
        "name": "FLOCK 4H-32",
        "group": "last-30-days",
        "lat": -57.24171122317991,
        "lon": 79.02993704494128,
        "alt_km": 519.4691094664986,
        "timestamp": "2025-12-21T16:47:53.449460+00:00",
        "meta_object_name": "FLOCK 4H-32",
        "meta_object_id": "2025-276BX",
        "meta_epoch": "2025-12-21T10:43:18.977952",
        "meta_mean_motion": 15.17204683,
        "meta_eccentricity": 0.000349,
        "meta_inclination": 97.4434,
        "meta_ra_of_asc_node": 67.0576,
        "meta_arg_of_pericenter": 266.5351,
        "meta_mean_anomaly": 93.5484,
        "meta_ephemeris_type": 0,
        "meta_classification_type": "U",
        "meta_norad_cat_id": 66735,
        "meta_element_set_no": 999,
        "meta_rev_at_epoch": 344,
        "meta_bstar": 0.00036111,
        "meta_mean_motion_dot": 7.113e-05,
        "meta_mean_motion_ddot": 0,
        "tle_line1": "1 66735U 25276BX  25355.44674743  .00007113  00000+0  36111-3 0  9994",
        "tle_line2": "2 66735  97.4434  67.0576 0003490 266.5351  93.5484 15.17204683  3446"
      },
      "geometry": {
        "type": "Point",
        "coordinates": [
          79.02993704494128,
          -57.24171122317991
        ]
      }
    },
    {
      "type": "Feature",
      "properties": {
        "norad_id": 66736,
        "name": "FLOCK 4H-33",
        "group": "last-30-days",
        "lat": 27.993953882900236,
        "lon": 63.3571530932813,
        "alt_km": 511.14063548058675,
        "timestamp": "2025-12-21T16:47:53.449471+00:00",
        "meta_object_name": "FLOCK 4H-33",
        "meta_object_id": "2025-276BY",
        "meta_epoch": "2025-12-21T04:01:11.865216",
        "meta_mean_motion": 15.18257203,
        "meta_eccentricity": 0.00024575,
        "meta_inclination": 97.4436,
        "meta_ra_of_asc_node": 66.8185,
        "meta_arg_of_pericenter": 164.5215,
        "meta_mean_anomaly": 195.6095,
        "meta_ephemeris_type": 0,
        "meta_classification_type": "U",
        "meta_norad_cat_id": 66736,
        "meta_element_set_no": 999,
        "meta_rev_at_epoch": 340,
        "meta_bstar": 0.00035274172,
        "meta_mean_motion_dot": 7.16e-05,
        "meta_mean_motion_ddot": 0,
        "tle_line1": "1 66736U 25276BY  25355.16749844  .00007160  00000+0  35274-3 0  9990",
        "tle_line2": "2 66736  97.4436  66.8185 0002457 164.5215 195.6095 15.18257203  3405"
      },
      "geometry": {
        "type": "Point",
        "coordinates": [
          63.3571530932813,
          27.993953882900236
        ]
      }
    },
    {
      "type": "Feature",
      "properties": {
        "norad_id": 66737,
        "name": "FLOCK 4H-34",
        "group": "last-30-days",
        "lat": 19.45807941674483,
        "lon": 64.69600425943433,
        "alt_km": 513.24000045506,
        "timestamp": "2025-12-21T16:47:53.449481+00:00",
        "meta_object_name": "FLOCK 4H-34",
        "meta_object_id": "2025-276BZ",
        "meta_epoch": "2025-12-21T07:13:13.910016",
        "meta_mean_motion": 15.18128308,
        "meta_eccentricity": 0.0002463,
        "meta_inclination": 97.4446,
        "meta_ra_of_asc_node": 66.9512,
        "meta_arg_of_pericenter": 174.4508,
        "meta_mean_anomaly": 185.6754,
        "meta_ephemeris_type": 0,
        "meta_classification_type": "U",
        "meta_norad_cat_id": 66737,
        "meta_element_set_no": 999,
        "meta_rev_at_epoch": 267,
        "meta_bstar": 0.00031399,
        "meta_mean_motion_dot": 6.342e-05,
        "meta_mean_motion_ddot": 0,
        "tle_line1": "1 66737U 25276BZ  25355.30085544  .00006342  00000+0  31399-3 0  9992",
        "tle_line2": "2 66737  97.4446  66.9512 0002463 174.4508 185.6754 15.18128308  2676"
      },
      "geometry": {
        "type": "Point",
        "coordinates": [
          64.69600425943433,
          19.45807941674483
        ]
      }
    }
  ]
}